OBJECT_NAME,OBJECT_ID,EPOCH,MEAN_MOTION,ECCENTRICITY,INCLINATION,RA_OF_ASC_NODE,ARG_OF_PERICENTER,MEAN_ANOMALY,EPHEMERIS_TYPE,CLASSIFICATION_TYPE,NORAD_CAT_ID,ELEMENT_SET_NO,REV_AT_EPOCH,BSTAR,MEAN_MOTION_DOT,MEAN_MOTION_DDOT
STARLINK-34289,2025-117Y,2026-06-30T11:15:54.126144,15.34397921,.00010542,53.1587,234.9824,92.6694,267.4429,0,U,64225,999,6183,.37750715E-3,.12399E-3,0
STARLINK-34347,2025-117Z,2026-06-30T10:03:18.944928,15.34408747,.00008082,53.1572,235.3767,95.1637,264.9458,0,U,64226,999,6179,.78528892E-3,.26256E-3,0
STARLINK-34330,2025-117AA,2026-06-30T11:17:15.546048,15.30201572,.000116,53.1587,235.6918,84.6973,275.4161,0,U,64227,999,6179,.54264988E-3,.15747E-3,0
STARLINK-34167,2025-117AB,2026-06-30T07:52:27.475392,15.34408880,.00011092,53.1581,234.1065,78.1098,282.0029,0,U,64228,999,6183,.49129189E-3,.16264E-3,0
STARLINK-34241,2025-117AC,2026-06-30T13:59:15.992736,15.34404583,.0000973,53.1571,234.3353,89.3282,270.7832,0,U,64229,999,6185,.50728E-3,.16804E-3,0
GLOBAL-32,2025-118B,2026-06-30T17:02:28.243104,15.38934096,.0015327,58.9939,77.7815,52.1628,308.0832,0,U,64231,999,6032,.36947E-3,.14113E-3,0
STARLINK-11686 [DTC],2025-119A,2026-06-30T13:32:31.058304,15.70868844,.0000955,43.0002,249.0411,285.0811,74.9951,0,U,64233,999,6299,.11023E-2,.143634E-2,0
STARLINK-11682 [DTC],2025-119B,2026-06-30T15:25:42.557952,15.70893900,.0001471,42.9994,248.7793,27.0565,333.0379,0,U,64234,999,6300,.1123E-2,.146544E-2,0
STARLINK-11675 [DTC],2025-119C,2026-06-30T14:39:49.712256,15.70845105,.0000961,42.9998,248.5218,330.2347,29.8466,0,U,64235,999,6300,.12077E-2,.157523E-2,0
STARLINK-11691 [DTC],2025-119D,2026-06-30T15:48:26.882208,15.70877260,.0001109,42.9984,248.0104,264.1294,95.9447,0,U,64236,999,6301,.11409E-2,.148821E-2,0
STARLINK-11670 [DTC],2025-119E,2026-06-30T13:31:12.232128,15.70857283,.0000837,42.9991,249.0325,286.7490,73.3286,0,U,64237,999,6299,.13582E-2,.177726E-2,0
STARLINK-11708 [DTC],2025-119F,2026-06-30T15:10:24.455136,15.70863390,.0001087,43.0002,248.6882,259.6639,100.4106,0,U,64238,999,6300,.11142E-2,.145177E-2,0
STARLINK-11683 [DTC],2025-119G,2026-06-30T14:01:35.671296,15.70833933,.0001702,42.9992,248.3082,263.4682,96.5991,0,U,64239,999,6300,.13053E-2,.170474E-2,0
STARLINK-11684 [DTC],2025-119H,2026-06-30T05:38:06.405504,15.70882996,.00020642,43.0006,250.8623,310.5872,49.4816,0,U,64240,999,6294,.11626766E-2,.151771E-2,0
STARLINK-11689 [DTC],2025-119J,2026-06-30T16:03:43.930080,15.70878597,.0001604,42.9988,248.0949,255.9220,104.1470,0,U,64241,999,6301,.10163E-2,.13227E-2,0
STARLINK-11690 [DTC],2025-119K,2026-06-30T15:56:04.873920,15.70872850,.0003135,42.9989,248.0519,247.3261,112.7276,0,U,64242,999,6301,.1304E-2,.170607E-2,0
STARLINK-11694 [DTC],2025-119L,2026-06-30T15:46:07.545792,15.75765712,.0004047,42.9942,247.9819,21.8028,338.3013,0,U,64243,999,6301,.11955E-2,.193562E-2,0
STARLINK-11710 [DTC],2025-119M,2026-06-30T14:55:06.818016,15.70901407,.0001505,43.0000,248.6031,291.0563,69.0144,0,U,64244,999,6300,.17789E-2,.234986E-2,0
STARLINK-11704 [DTC],2025-119N,2026-06-30T14:09:14.667840,15.70829103,.0001128,43.0004,248.3485,306.4938,53.5825,0,U,64245,999,6300,.13036E-2,.170216E-2,0
STARLINK-34203,2025-119P,2026-06-29T23:30:34.270848,15.27602213,.00019407,43.0046,32.8124,271.4607,88.6022,0,U,64246,999,6135,.91059497E-3,.24897E-3,0
STARLINK-33865,2025-119Q,2026-06-30T14:49:54.749856,15.27633452,.0001944,43.0031,28.9952,279.4334,80.6298,0,U,64247,999,6141,.13425E-2,.36928E-3,0
STARLINK-34234,2025-119R,2026-06-29T23:45:22.452480,15.27602159,.00017876,43.0041,32.8809,267.0235,93.0412,0,U,64248,999,6134,.92940462E-3,.25419E-3,0
STARLINK-34256,2025-119S,2026-06-30T15:01:02.201088,15.27590108,.0001428,43.0036,29.0525,259.3548,100.7143,0,U,64249,999,6144,.9614E-3,.26296E-3,0
STARLINK-34229,2025-119T,2026-06-30T14:18:41.541696,15.27578483,.0001413,43.0003,29.6993,268.4961,91.5729,0,U,64250,999,6143,.58117E-3,.15764E-3,0
STARLINK-34224,2025-119U,2026-06-30T13:21:19.845216,15.27592142,.00035104,43.0012,29.3952,282.4664,77.5795,0,U,64251,999,6143,.94612544E-3,.25877E-3,0
STARLINK-34215,2025-119V,2026-06-29T23:39:49.433184,15.27598192,.00016248,43.0049,32.8577,275.4265,84.6401,0,U,64252,999,6134,.7828503E-3,.21355E-3,0
STARLINK-33893,2025-119W,2026-06-30T15:43:36.941088,15.27574541,.0003213,42.9994,29.2749,296.5973,63.4549,0,U,64253,999,6144,.65602E-3,.17832E-3,0
STARLINK-34183,2025-119X,2026-06-30T14:24:14.503104,15.27594261,.000103,42.9995,29.7240,250.1040,109.9700,0,U,64254,999,6143,.95236E-3,.26049E-3,0
STARLINK-34211,2025-119Y,2026-06-29T22:48:13.551840,15.27591390,.00014202,43.0009,33.4472,270.2826,89.7863,0,U,64255,999,6133,.11391439E-2,.31228E-3,0
STARLINK-34329,2025-120A,2026-06-30T02:12:08.737920,15.34408394,.00011634,53.1604,311.1797,88.2800,271.8336,0,U,64256,999,6117,.13397069E-2,.45173E-3,0
STARLINK-34352,2025-120B,2026-06-30T19:15:25.479072,15.30344551,.0012628,53.1599,311.3391,145.4512,214.7312,0,U,64257,999,6118,.46688E-2,.141489E-2,0
STARLINK-34308,2025-120C,2026-06-30T02:21:14.550048,15.34396142,.00015493,53.1593,311.2158,76.6449,283.4727,0,U,64258,999,6112,.90018346E-3,.30157E-3,0
STARLINK-34306,2025-120D,2026-06-30T17:37:59.261088,15.34411709,.0001123,53.1607,308.0783,75.8998,284.2129,0,U,64259,999,6122,.96755E-3,.32468E-3,0
STARLINK-34281,2025-120E,2026-06-30T02:24:16.299360,15.34402485,.00016764,53.1594,311.2283,82.1884,277.9309,0,U,64260,999,6112,.8489693E-3,.28419E-3,0
STARLINK-34297,2025-120F,2026-06-30T18:05:14.913312,15.34415044,.0000587,53.1602,308.1999,113.8946,246.2118,0,U,64261,999,6116,.11514E-2,.38744E-3,0
STARLINK-34325,2025-120G,2026-06-30T02:09:48.117600,15.34395753,.00014155,53.1618,314.7110,79.3684,280.7478,0,U,64262,999,6112,.92201034E-3,.309E-3,0
STARLINK-34276,2025-120H,2026-06-30T20:00:01.999008,15.31664395,.0001034,53.1609,310.6780,79.7562,353.7300,0,U,64263,999,591,.20281E-2,.63032E-3,0
STARLINK-34333,2025-120J,2026-06-30T17:34:57.389952,15.34411613,.0001046,53.1613,308.0665,81.6525,278.4596,0,U,64264,999,6122,.89076E-3,.2985E-3,0
STARLINK-34240,2025-120K,2026-06-30T17:41:42.036576,15.34415587,.0001062,53.1600,311.6429,88.1159,271.9965,0,U,64265,999,6122,.1071E-2,.36E-3,0
STARLINK-34315,2025-120L,2026-06-30T18:01:08.702688,15.30197003,.0001047,53.1627,311.7229,87.5959,272.5161,0,U,64266,999,6116,.10418E-2,.30621E-3,0
STARLINK-34321,2025-120M,2026-06-30T02:06:05.242752,15.34408011,.00013394,53.1594,311.1463,87.0274,273.0882,0,U,64267,999,6117,.76988924E-3,.25732E-3,0
STARLINK-34319,2025-120N,2026-06-30T19:42:04.674816,15.34419102,.0001275,53.1598,307.9019,86.1788,273.9361,0,U,64268,999,6127,.11107E-2,.37359E-3,0
STARLINK-34298,2025-120P,2026-06-30T17:47:04.608384,15.34401862,.0001161,53.1603,308.1177,92.7998,267.3137,0,U,64269,999,6117,.86439E-3,.28943E-3,0
STARLINK-34219,2025-120Q,2026-06-30T20:00:01.999008,15.30149917,.0001794,53.1611,311.4317,82.3406,326.3500,0,U,64270,999,591,.21935E-2,.65075E-3,0
STARLINK-34342,2025-120R,2026-06-30T20:00:01.999008,15.33515201,.0001389,53.1597,311.1384,70.8452,128.5151,0,U,64271,999,591,.19939E-2,.65709E-3,0
STARLINK-34001,2025-120S,2026-06-30T20:00:01.999008,15.34345901,.0001135,53.1603,311.2870,72.0020,52.5371,0,U,64272,999,591,.19737E-2,.66788E-3,0
STARLINK-34334,2025-120T,2026-06-30T20:02:23.568000,15.30222012,.0001199,53.1606,310.8278,68.0150,292.0978,0,U,64273,999,6124,.11859E-2,.34953E-3,0
STARLINK-34272,2025-120U,2026-06-30T17:38:40.138656,15.34407939,.0001293,53.1599,311.6280,86.5670,273.5481,0,U,64274,999,6112,.10154E-2,.34095E-3,0
STARLINK-34293,2025-120V,2026-06-30T18:14:49.690176,15.30225091,.0001963,53.1618,311.7824,68.6712,291.4498,0,U,64275,999,6116,.1202E-2,.35439E-3,0
STARLINK-34350,2025-120W,2026-06-30T02:15:10.596096,15.34377977,.00018536,53.1589,311.1809,104.0548,256.0661,0,U,64276,999,6117,.1091099E-2,.36643E-3,0
STARLINK-34264,2025-120X,2026-06-30T17:52:01.837344,15.30200534,.0001144,53.1616,311.6819,90.9790,269.1342,0,U,64277,999,6116,.89638E-3,.26283E-3,0
STARLINK-34353,2025-120Y,2026-06-30T20:00:01.999008,15.34357282,.0001784,53.1605,311.3290,78.9535,22.3160,0,U,64278,999,591,.19418E-2,.65719E-3,0
STARLINK-34377,2025-120Z,2026-06-30T02:18:12.163104,15.34382505,.00010281,53.1603,311.1965,96.9824,263.1295,0,U,64279,999,6117,.54769754E-3,.18163E-3,0
STARLINK-34359,2025-120AA,2026-06-30T17:59:37.898016,15.30217895,.0001193,53.1626,311.7127,83.3885,276.7251,0,U,64280,999,6122,.79546E-3,.23287E-3,0
STARLINK-34366,2025-120AB,2026-06-30T17:36:50.749344,15.30195090,.0002737,53.1596,311.6174,83.8579,276.2733,0,U,64281,999,6117,.70729E-3,.20645E-3,0
STARLINK-34381,2025-120AC,2026-06-30T06:50:35.239776,15.30177529,.00011255,53.1609,313.7920,92.0622,268.0508,0,U,64282,999,6113,.94927651E-4,.2451E-4,0
HULIANWANG DIGUI-30,2025-121A,2026-06-30T20:13:03.599328,13.24408977,.0002041,86.4984,8.9508,90.4604,269.6764,0,U,64283,999,5196,.437E-4,.33E-6,0
HULIANWANG DIGUI-31,2025-121B,2026-06-30T20:02:20.002272,13.24414043,.0002025,86.5005,9.0271,90.8928,269.2438,0,U,64284,999,5196,.46377E-4,.35E-6,0
HULIANWANG DIGUI-32,2025-121C,2026-06-30T19:51:10.987200,13.24409936,.0001906,86.4946,8.7926,93.3094,266.8258,0,U,64285,999,5196,.37568E-4,.31E-6,0
HULIANWANG DIGUI-33,2025-121D,2026-06-30T17:51:30.964896,13.24409503,.0002033,86.5004,9.0413,91.3456,268.7911,0,U,64286,999,5195,-.85902E-5,.11E-6,0
HULIANWANG DIGUI-34,2025-121E,2026-06-30T19:29:29.554368,13.24410241,.0002338,86.4982,8.9250,89.1172,271.0230,0,U,64287,999,5196,-.19223E-5,.14E-6,0
SXM-10,2025-122A,2026-06-30T09:30:38.719008,1.00271655,.00018983,0.0165,29.0253,343.9092,292.0234,0,U,64290,999,381,0,-.6E-7,0
STARLINK-34448,2025-123A,2026-06-30T11:35:37.804416,14.98329524,.00033127,70.0010,270.0783,266.8264,93.2516,0,U,64291,999,5973,.5406966E-3,.6364E-4,0
STARLINK-34362,2025-123B,2026-06-30T16:41:49.255872,14.98335952,.0003629,70.0018,269.6147,267.2378,92.8366,0,U,64292,999,5976,.26841E-3,.3112E-4,0
